{"fetched_at":"2026-03-29T16:36:15Z","count":15609,"tles":[{"name":"STARLINK-11660 [DTC]","line1":"1 63761U 25089L   26087.61097984  .00229862  00000+0  17413-2 0  9990","line2":"2 63761  43.0025 177.9824 0002208 290.2546  69.8084 15.70900308 53069","category":"Starlink"}]}