{
  "norad_id": 63761,
  "name": "STARLINK-11660 [DTC]",
  "history": [
    {
      "epoch": "2026-03-28T14:39:48.658176",
      "apogee_km": 357.8096642330829,
      "perigee_km": 354.8357268315358,
      "latitude_deg": -43.000095895681454,
      "longitude_deg": -105.24593535996974,
      "semi_major_axis_km": 6734.4596955323095,
      "eccentricity": 0.0002208,
      "inclination_deg": 43.0025,
      "raan_deg": 177.9824,
      "arg_perigee_deg": 290.2546,
      "mean_anomaly_deg": 69.8084,
      "mean_motion_rev_day": 15.70900308
    }
  ]
}